start=new Date('2022-04-18T00:00:00.000Z').valueOf();
sats=[{"EPHEMERIS_TYPE":"0","ARG_OF_PERICENTER":"65.1193","RA_OF_ASC_NODE":"324.2892","OBJECT_TYPE":"PAYLOAD","TLE_LINE1":"1 47374U 21005AB  22107.89946826 -.00000882  00000-0 -40362-4 0  9996","EPOCH":"2022-04-17T21:35:14.057664","SITE":"AFETR","CLASSIFICATION_TYPE":"U","OBJECT_NAME":"STARLINK-2093","RCS_SIZE":"LARGE","ELEMENT_SET_NO":"999","FILE":"3405839","DECAY_DATE":null,"GP_ID":"201494609","INCLINATION":"53.0500","MEAN_ELEMENT_THEORY":"SGP4","MEAN_ANOMALY":"294.9949","PERIAPSIS":"546.220","OBJECT_ID":"2021-005AB","ECCENTRICITY":"0.00014740","MEAN_MOTION_DDOT":"0.0000000000000","COUNTRY_CODE":"US","PERIOD":"95.593","REF_FRAME":"TEME","MEAN_MOTION_DOT":"-0.00000882","TLE_LINE2":"2 47374  53.0500 324.2892 0001474  65.1193 294.9949 15.06391143 68745","CENTER_NAME":"EARTH","MEAN_MOTION":"15.06391143","BSTAR":"-0.00004036200000","APOAPSIS":"548.262","NORAD_CAT_ID":"47374","TIME_SYSTEM":"UTC","LAUNCH_DATE":"2021-01-20","SEMIMAJOR_AXIS":"6925.376","REV_AT_EPOCH":"6874"},{"MEAN_MOTION_DOT":"-0.00001250","REF_FRAME":"TEME","PERIOD":"95.593","COUNTRY_CODE":"US","CENTER_NAME":"EARTH","TLE_LINE2":"2 47375  53.0542 324.2753 0001494  59.7223 300.3914 15.06390943 68744","BSTAR":"-0.00006504300000","MEAN_MOTION":"15.06390943","SEMIMAJOR_AXIS":"6925.376","REV_AT_EPOCH":"6874","TIME_SYSTEM":"UTC","LAUNCH_DATE":"2021-01-20","APOAPSIS":"548.276","NORAD_CAT_ID":"47375","EPOCH":"2022-04-17T21:41:54.430944","TLE_LINE1":"1 47375U 21005AC  22107.90410221 -.00001250  00000-0 -65043-4 0  9997","OBJECT_TYPE":"PAYLOAD","ARG_OF_PERICENTER":"59.7223","RA_OF_ASC_NODE":"324.2753","EPHEMERIS_TYPE":"0","RCS_SIZE":"LARGE","OBJECT_NAME":"STARLINK-2094","CLASSIFICATION_TYPE":"U","SITE":"AFETR","MEAN_ELEMENT_THEORY":"SGP4","INCLINATION":"53.0542","GP_ID":"201495852","FILE":"3405839","DECAY_DATE":null,"ELEMENT_SET_NO":"999","MEAN_MOTION_DDOT":"0.0000000000000","ECCENTRICITY":"0.00014940","OBJECT_ID":"2021-005AC","PERIAPSIS":"546.207","MEAN_ANOMALY":"300.3914"},{"CENTER_NAME":"EARTH","TLE_LINE2":"2 47376  53.0529 324.2506 0001317  69.1499 290.9631 15.06400986 68749","REF_FRAME":"TEME","MEAN_MOTION_DOT":"0.00003559","COUNTRY_CODE":"US","PERIOD":"95.592","REV_AT_EPOCH":"6874","SEMIMAJOR_AXIS":"6925.346","APOAPSIS":"548.123","NORAD_CAT_ID":"47376","TIME_SYSTEM":"UTC","LAUNCH_DATE":"2021-01-20","BSTAR":"0.00025772000000","MEAN_MOTION":"15.06400986","OBJECT_NAME":"STARLINK-2096","RCS_SIZE":"LARGE","SITE":"AFETR","CLASSIFICATION_TYPE":"U","TLE_LINE1":"1 47376U 21005AD  22107.90777377  .00003559  00000-0  25772-3 0  9992","EPOCH":"2022-04-17T21:47:11.653728","EPHEMERIS_TYPE":"0","OBJECT_TYPE":"PAYLOAD","ARG_OF_PERICENTER":"69.1499","RA_OF_ASC_NODE":"324.2506","OBJECT_ID":"2021-005AD","MEAN_MOTION_DDOT":"0.0000000000000","ECCENTRICITY":"0.00013170","MEAN_ANOMALY":"290.9631","PERIAPSIS":"546.298","GP_ID":"201495609","FILE":"3405839","DECAY_DATE":null,"MEAN_ELEMENT_THEORY":"SGP4","INCLINATION":"53.0529","ELEMENT_SET_NO":"999"},{"MEAN_MOTION_DOT":"0.00000238","REF_FRAME":"TEME","PERIOD":"95.593","COUNTRY_CODE":"US","CENTER_NAME":"EARTH","TLE_LINE2":"2 47377  53.0558 324.3225 0001364  73.4385 286.6754 15.06391294 68744","BSTAR":"0.00003487100000","MEAN_MOTION":"15.06391294","REV_AT_EPOCH":"6874","SEMIMAJOR_AXIS":"6925.375","LAUNCH_DATE":"2021-01-20","TIME_SYSTEM":"UTC","NORAD_CAT_ID":"47377","APOAPSIS":"548.185","TLE_LINE1":"1 47377U 21005AE  22107.89303931  .00000238  00000-0  34871-4 0  9994","EPOCH":"2022-04-17T21:25:58.596384","OBJECT_TYPE":"PAYLOAD","RA_OF_ASC_NODE":"324.3225","ARG_OF_PERICENTER":"73.4385","EPHEMERIS_TYPE":"0","RCS_SIZE":"LARGE","OBJECT_NAME":"STARLINK-2097","CLASSIFICATION_TYPE":"U","SITE":"AFETR","MEAN_ELEMENT_THEORY":"SGP4","INCLINATION":"53.0558","GP_ID":"201494851","DECAY_DATE":null,"FILE":"3405839","ELEMENT_SET_NO":"999","MEAN_MOTION_DDOT":"0.0000000000000","ECCENTRICITY":"0.00013640","OBJECT_ID":"2021-005AE","PERIAPSIS":"546.296","MEAN_ANOMALY":"286.6754"},{"REF_FRAME":"TEME","MEAN_MOTION_DOT":"0.00011293","COUNTRY_CODE":"US","PERIOD":"95.593","CENTER_NAME":"EARTH","TLE_LINE2":"2 47378  53.0536 284.9453 0001539  67.9937 292.1215 15.06390193 69281","BSTAR":"0.00077600000000","MEAN_MOTION":"15.06390193","SEMIMAJOR_AXIS":"6925.379","REV_AT_EPOCH":"6928","NORAD_CAT_ID":"47378","APOAPSIS":"548.309","LAUNCH_DATE":"2021-01-20","TIME_SYSTEM":"UTC","EPOCH":"2022-04-17T18:04:17.827104","TLE_LINE1":"1 47378U 21005AF  22107.75298411  .00011293  00000-0  77600-3 0  9995","EPHEMERIS_TYPE":"0","OBJECT_TYPE":"PAYLOAD","RA_OF_ASC_NODE":"284.9453","ARG_OF_PERICENTER":"67.9937","OBJECT_NAME":"STARLINK-2098","RCS_SIZE":"LARGE","SITE":"AFETR","CLASSIFICATION_TYPE":"U","GP_ID":"201495101","FILE":"3405839","DECAY_DATE":null,"MEAN_ELEMENT_THEORY":"SGP4","INCLINATION":"53.0536","ELEMENT_SET_NO":"999","OBJECT_ID":"2021-005AF","MEAN_MOTION_DDOT":"0.0000000000000","ECCENTRICITY":"0.00015390","MEAN_ANOMALY":"292.1215","PERIAPSIS":"546.178"},{"MEAN_MOTION":"15.06395006","BSTAR":"-0.00007363300000","NORAD_CAT_ID":"47379","APOAPSIS":"548.364","TIME_SYSTEM":"UTC","LAUNCH_DATE":"2021-01-20","SEMIMAJOR_AXIS":"6925.364","REV_AT_EPOCH":"6928","COUNTRY_CODE":"US","PERIOD":"95.592","REF_FRAME":"TEME","MEAN_MOTION_DOT":"-0.00001378","TLE_LINE2":"2 47379  53.0557 284.9072 0001639  60.8030 299.3122 15.06395006 69283","CENTER_NAME":"EARTH","ELEMENT_SET_NO":"999","GP_ID":"201495361","DECAY_DATE":null,"FILE":"3405839","MEAN_ELEMENT_THEORY":"SGP4","INCLINATION":"53.0557","MEAN_ANOMALY":"299.3122","PERIAPSIS":"546.094","OBJECT_ID":"2021-005AG","MEAN_MOTION_DDOT":"0.0000000000000","ECCENTRICITY":"0.00016390","EPHEMERIS_TYPE":"0","OBJECT_TYPE":"PAYLOAD","RA_OF_ASC_NODE":"284.9072","ARG_OF_PERICENTER":"60.8030","EPOCH":"2022-04-17T18:14:54.819744","TLE_LINE1":"1 47379U 21005AG  22107.76035671 -.00001378  00000-0 -73633-4 0  9992","SITE":"AFETR","CLASSIFICATION_TYPE":"U","OBJECT_NAME":"STARLINK-2099","RCS_SIZE":"LARGE"},{"ELEMENT_SET_NO":"999","DECAY_DATE":null,"FILE":"3405839","GP_ID":"201496101","INCLINATION":"53.0522","MEAN_ELEMENT_THEORY":"SGP4","MEAN_ANOMALY":"303.0370","PERIAPSIS":"546.076","OBJECT_ID":"2021-005AH","ECCENTRICITY":"0.00016350","MEAN_MOTION_DDOT":"0.0000000000000","EPHEMERIS_TYPE":"0","RA_OF_ASC_NODE":"294.4797","ARG_OF_PERICENTER":"57.0776","OBJECT_TYPE":"PAYLOAD","TLE_LINE1":"1 47380U 21005AH  22107.85526033  .00023596  00000-0  15976-2 0  9999","EPOCH":"2022-04-17T20:31:34.492512","SITE":"AFETR","CLASSIFICATION_TYPE":"U","OBJECT_NAME":"STARLINK-2100","RCS_SIZE":"LARGE","MEAN_MOTION":"15.06401591","BSTAR":"0.00159760000000","NORAD_CAT_ID":"47380","APOAPSIS":"548.341","TIME_SYSTEM":"UTC","LAUNCH_DATE":"2021-01-20","REV_AT_EPOCH":"6916","SEMIMAJOR_AXIS":"6925.344","COUNTRY_CODE":"US","PERIOD":"95.592","REF_FRAME":"TEME","MEAN_MOTION_DOT":"0.00023596","TLE_LINE2":"2 47380  53.0522 294.4797 0001635  57.0776 303.0370 15.06401591 69160","CENTER_NAME":"EARTH"},{"CLASSIFICATION_TYPE":"U","SITE":"AFETR","RCS_SIZE":"LARGE","OBJECT_NAME":"STARLINK-2101","ARG_OF_PERICENTER":"74.0900","RA_OF_ASC_NODE":"299.7466","OBJECT_TYPE":"PAYLOAD","EPHEMERIS_TYPE":"0","TLE_LINE1":"1 47381U 21005AJ  22107.79670614  .00002179  00000-0  16509-3 0  9996","EPOCH":"2022-04-17T19:07:15.410496","PERIAPSIS":"546.273","MEAN_ANOMALY":"286.0233","ECCENTRICITY":"0.00013140","MEAN_MOTION_DDOT":"0.0000000000000","OBJECT_ID":"2021-005AJ","ELEMENT_SET_NO":"999","INCLINATION":"53.0533","MEAN_ELEMENT_THEORY":"SGP4","FILE":"3405839","DECAY_DATE":null,"GP_ID":"201494360","TLE_LINE2":"2 47381  53.0533 299.7466 0001314  74.0900 286.0233 15.06410001 69081","CENTER_NAME":"EARTH","PERIOD":"95.592","COUNTRY_CODE":"US","MEAN_MOTION_DOT":"0.00002179","REF_FRAME":"TEME","LAUNCH_DATE":"2021-01-20","TIME_SYSTEM":"UTC","APOAPSIS":"548.093","NORAD_CAT_ID":"47381","SEMIMAJOR_AXIS":"6925.318","REV_AT_EPOCH":"6908","MEAN_MOTION":"15.06410001","BSTAR":"0.00016509000000"},{"CLASSIFICATION_TYPE":"U","SITE":"AFETR","RCS_SIZE":"LARGE","OBJECT_NAME":"STARLINK-2102","OBJECT_TYPE":"PAYLOAD","RA_OF_ASC_NODE":"294.5151","ARG_OF_PERICENTER":"66.4836","EPHEMERIS_TYPE":"0","TLE_LINE1":"1 47382U 21005AK  22107.84788845  .00000433  00000-0  47942-4 0  9996","EPOCH":"2022-04-17T20:20:57.562080","PERIAPSIS":"546.162","MEAN_ANOMALY":"293.6313","MEAN_MOTION_DDOT":"0.0000000000000","ECCENTRICITY":"0.00015330","OBJECT_ID":"2021-005AK","ELEMENT_SET_NO":"999","MEAN_ELEMENT_THEORY":"SGP4","INCLINATION":"53.0559","GP_ID":"201494610","FILE":"3405839","DECAY_DATE":null,"TLE_LINE2":"2 47382  53.0559 294.5151 0001533  66.4836 293.6313 15.06396775 69152","CENTER_NAME":"EARTH","PERIOD":"95.592","COUNTRY_CODE":"US","MEAN_MOTION_DOT":"0.00000433","REF_FRAME":"TEME","TIME_SYSTEM":"UTC","LAUNCH_DATE":"2021-01-20","APOAPSIS":"548.285","NORAD_CAT_ID":"47382","SEMIMAJOR_AXIS":"6925.358","REV_AT_EPOCH":"6915","MEAN_MOTION":"15.06396775","BSTAR":"0.00004794200000"},{"ELEMENT_SET_NO":"999","MEAN_ELEMENT_THEORY":"SGP4","INCLINATION":"53.0546","GP_ID":"201495853","DECAY_DATE":null,"FILE":"3405839","PERIAPSIS":"546.027","MEAN_ANOMALY":"301.3507","MEAN_MOTION_DDOT":"0.0000000000000","ECCENTRICITY":"0.00017530","OBJECT_ID":"2021-005AL","OBJECT_TYPE":"PAYLOAD","ARG_OF_PERICENTER":"58.7653","RA_OF_ASC_NODE":"284.4368","EPHEMERIS_TYPE":"0","EPOCH":"2022-04-17T20:47:27.755808","TLE_LINE1":"1 47383U 21005AL  22107.86629347 -.00002235  00000-0 -13121-3 0  9995","CLASSIFICATION_TYPE":"U","SITE":"AFETR","RCS_SIZE":"LARGE","OBJECT_NAME":"STARLINK-2103","MEAN_MOTION":"15.06391061","BSTAR":"-0.00013121000000","TIME_SYSTEM":"UTC","LAUNCH_DATE":"2021-01-20","NORAD_CAT_ID":"47383","APOAPSIS":"548.455","REV_AT_EPOCH":"6930","SEMIMAJOR_AXIS":"6925.376","PERIOD":"95.593","COUNTRY_CODE":"US","MEAN_MOTION_DOT":"-0.00002235","REF_FRAME":"TEME","TLE_LINE2":"2 47383  53.0546 284.4368 0001753  58.7653 301.3507 15.06391061 69304","CENTER_NAME":"EARTH"}];
